{"fetched_at":"2026-07-22T07:09:25.426Z","source":"https://celestrak.org/NORAD/elements/gp.php?GROUP=qianfan&FORMAT=JSON","constellation":"qianfan","records":[{"OBJECT_NAME":"QIANFAN-225","OBJECT_ID":"2026-155G","EPOCH":"2026-07-21T15:02:22.395840","CLASSIFICATION_TYPE":"U","MEAN_MOTION":14.15124718,"ECCENTRICITY":0.00322275,"INCLINATION":89.0056,"RA_OF_ASC_NODE":60.2189,"ARG_OF_PERICENTER":198.4099,"MEAN_ANOMALY":161.5925,"EPHEMERIS_TYPE":0,"NORAD_CAT_ID":69854,"ELEMENT_SET_NO":999,"REV_AT_EPOCH":229,"BSTAR":-1.0246,"MEAN_MOTION_DOT":-0.01860194,"MEAN_MOTION_DDOT":0},{"OBJECT_NAME":"QIANFAN-226","OBJECT_ID":"2026-155H","EPOCH":"2026-07-21T13:20:19.700448","CLASSIFICATION_TYPE":"U","MEAN_MOTION":14.19636425,"ECCENTRICITY":0.0030281,"INCLINATION":89.0062,"RA_OF_ASC_NODE":60.2265,"ARG_OF_PERICENTER":201.4287,"MEAN_ANOMALY":158.5638,"EPHEMERIS_TYPE":0,"NORAD_CAT_ID":69855,"ELEMENT_SET_NO":999,"REV_AT_EPOCH":228,"BSTAR":0.000020059809,"MEAN_MOTION_DOT":5.7e-7,"MEAN_MOTION_DDOT":0},{"OBJECT_NAME":"QIANFAN-227","OBJECT_ID":"2026-155J","EPOCH":"2026-07-21T13:11:59.019360","CLASSIFICATION_TYPE":"U","MEAN_MOTION":14.1992834,"ECCENTRICITY":0.0030216,"INCLINATION":89.0061,"RA_OF_ASC_NODE":60.2257,"ARG_OF_PERICENTER":201.0007,"MEAN_ANOMALY":158.9945,"EPHEMERIS_TYPE":0,"NORAD_CAT_ID":69856,"ELEMENT_SET_NO":999,"REV_AT_EPOCH":228,"BSTAR":0.000020055772,"MEAN_MOTION_DOT":5.7e-7,"MEAN_MOTION_DDOT":0},{"OBJECT_NAME":"QIANFAN-228","OBJECT_ID":"2026-155K","EPOCH":"2026-07-21T13:09:18.496800","CLASSIFICATION_TYPE":"U","MEAN_MOTION":14.20222287,"ECCENTRICITY":0.00300483,"INCLINATION":89.0063,"RA_OF_ASC_NODE":60.2254,"ARG_OF_PERICENTER":201.4368,"MEAN_ANOMALY":158.5566,"EPHEMERIS_TYPE":0,"NORAD_CAT_ID":69857,"ELEMENT_SET_NO":999,"REV_AT_EPOCH":228,"BSTAR":0.000019746931,"MEAN_MOTION_DOT":5.7e-7,"MEAN_MOTION_DDOT":0},{"OBJECT_NAME":"QIANFAN-229","OBJECT_ID":"2026-155L","EPOCH":"2026-07-21T12:57:32.376384","CLASSIFICATION_TYPE":"U","MEAN_MOTION":14.18445562,"ECCENTRICITY":0.00353669,"INCLINATION":89.0051,"RA_OF_ASC_NODE":60.2244,"ARG_OF_PERICENTER":202.9223,"MEAN_ANOMALY":157.039,"EPHEMERIS_TYPE":0,"NORAD_CAT_ID":69858,"ELEMENT_SET_NO":999,"REV_AT_EPOCH":228,"BSTAR":-1.0293802,"MEAN_MOTION_DOT":-0.01981049,"MEAN_MOTION_DDOT":0},{"OBJECT_NAME":"QIANFAN-230","OBJECT_ID":"2026-155M","EPOCH":"2026-07-21T13:44:29.584032","CLASSIFICATION_TYPE":"U","MEAN_MOTION":14.13947798,"ECCENTRICITY":0.00291899,"INCLINATION":89.0051,"RA_OF_ASC_NODE":60.2285,"ARG_OF_PERICENTER":199.3591,"MEAN_ANOMALY":160.649,"EPHEMERIS_TYPE":0,"NORAD_CAT_ID":69859,"ELEMENT_SET_NO":999,"REV_AT_EPOCH":228,"BSTAR":-1.0525674,"MEAN_MOTION_DOT":-0.01867621,"MEAN_MOTION_DDOT":0},{"OBJECT_NAME":"QIANFAN-231","OBJECT_ID":"2026-155N","EPOCH":"2026-07-21T14:40:30.089568","CLASSIFICATION_TYPE":"U","MEAN_MOTION":14.20426512,"ECCENTRICITY":0.00323615,"INCLINATION":89.0054,"RA_OF_ASC_NODE":60.2165,"ARG_OF_PERICENTER":200.9278,"MEAN_ANOMALY":159.059,"EPHEMERIS_TYPE":0,"NORAD_CAT_ID":69860,"ELEMENT_SET_NO":999,"REV_AT_EPOCH":229,"BSTAR":-1.0076802,"MEAN_MOTION_DOT":-0.02008566,"MEAN_MOTION_DDOT":0},{"OBJECT_NAME":"QIANFAN-232","OBJECT_ID":"2026-155P","EPOCH":"2026-07-21T14:35:34.433952","CLASSIFICATION_TYPE":"U","MEAN_MOTION":14.19253134,"ECCENTRICITY":0.00311056,"INCLINATION":89.0056,"RA_OF_ASC_NODE":60.2158,"ARG_OF_PERICENTER":210.393,"MEAN_ANOMALY":149.5457,"EPHEMERIS_TYPE":0,"NORAD_CAT_ID":69861,"ELEMENT_SET_NO":999,"REV_AT_EPOCH":229,"BSTAR":-0.89879077,"MEAN_MOTION_DOT":-0.01748511,"MEAN_MOTION_DDOT":0},{"OBJECT_NAME":"QIANFAN-233","OBJECT_ID":"2026-155Q","EPOCH":"2026-07-21T14:33:50.634720","CLASSIFICATION_TYPE":"U","MEAN_MOTION":14.20442805,"ECCENTRICITY":0.00313352,"INCLINATION":89.0056,"RA_OF_ASC_NODE":60.2157,"ARG_OF_PERICENTER":201.3009,"MEAN_ANOMALY":158.6879,"EPHEMERIS_TYPE":0,"NORAD_CAT_ID":69862,"ELEMENT_SET_NO":999,"REV_AT_EPOCH":229,"BSTAR":-1.0029452,"MEAN_MOTION_DOT":-0.01999761,"MEAN_MOTION_DDOT":0},{"OBJECT_NAME":"QIANFAN-234","OBJECT_ID":"2026-155R","EPOCH":"2026-07-21T14:31:25.849056","CLASSIFICATION_TYPE":"U","MEAN_MOTION":14.2139442,"ECCENTRICITY":0.0029029,"INCLINATION":89.0061,"RA_OF_ASC_NODE":60.2164,"ARG_OF_PERICENTER":199.4482,"MEAN_ANOMALY":160.5604,"EPHEMERIS_TYPE":0,"NORAD_CAT_ID":69863,"ELEMENT_SET_NO":999,"REV_AT_EPOCH":229,"BSTAR":-0.99492975,"MEAN_MOTION_DOT":-0.02016912,"MEAN_MOTION_DDOT":0},{"OBJECT_NAME":"QIANFAN-235","OBJECT_ID":"2026-155S","EPOCH":"2026-07-21T14:29:29.320512","CLASSIFICATION_TYPE":"U","MEAN_MOTION":14.21061628,"ECCENTRICITY":0.00139969,"INCLINATION":89.0063,"RA_OF_ASC_NODE":60.2195,"ARG_OF_PERICENTER":213.9042,"MEAN_ANOMALY":146.1255,"EPHEMERIS_TYPE":0,"NORAD_CAT_ID":69864,"ELEMENT_SET_NO":999,"REV_AT_EPOCH":229,"BSTAR":-0.67844727,"MEAN_MOTION_DOT":-0.01446639,"MEAN_MOTION_DDOT":0},{"OBJECT_NAME":"QIANFAN-236","OBJECT_ID":"2026-155T","EPOCH":"2026-07-21T14:35:22.219584","CLASSIFICATION_TYPE":"U","MEAN_MOTION":14.18876915,"ECCENTRICITY":0.003326,"INCLINATION":89.0056,"RA_OF_ASC_NODE":60.2168,"ARG_OF_PERICENTER":195.4662,"MEAN_ANOMALY":164.5515,"EPHEMERIS_TYPE":0,"NORAD_CAT_ID":69865,"ELEMENT_SET_NO":999,"REV_AT_EPOCH":229,"BSTAR":-1.051187,"MEAN_MOTION_DOT":-0.02033838,"MEAN_MOTION_DDOT":0},{"OBJECT_NAME":"QIANFAN-237","OBJECT_ID":"2026-155U","EPOCH":"2026-07-21T11:10:05.788128","CLASSIFICATION_TYPE":"U","MEAN_MOTION":14.21906668,"ECCENTRICITY":0.00257727,"INCLINATION":89.0062,"RA_OF_ASC_NODE":60.2323,"ARG_OF_PERICENTER":203.8288,"MEAN_ANOMALY":156.1712,"EPHEMERIS_TYPE":0,"NORAD_CAT_ID":69866,"ELEMENT_SET_NO":999,"REV_AT_EPOCH":226,"BSTAR":-1.0331046,"MEAN_MOTION_DOT":-0.02105487,"MEAN_MOTION_DDOT":0},{"OBJECT_NAME":"QIANFAN-238","OBJECT_ID":"2026-155V","EPOCH":"2026-07-21T14:28:48.953568","CLASSIFICATION_TYPE":"U","MEAN_MOTION":14.22795108,"ECCENTRICITY":0.0028255,"INCLINATION":89.0057,"RA_OF_ASC_NODE":60.2155,"ARG_OF_PERICENTER":196.9477,"MEAN_ANOMALY":163.0774,"EPHEMERIS_TYPE":0,"NORAD_CAT_ID":69867,"ELEMENT_SET_NO":999,"REV_AT_EPOCH":229,"BSTAR":-0.9087706,"MEAN_MOTION_DOT":-0.01899863,"MEAN_MOTION_DDOT":0}]}
