{"epoch":1784710044,"count":18256,"objects":[{"id":"69854","name":"QIANFAN-225","type":"PAYLOAD","l1":"1 69854U 26155G   26202.62664810 -.01860194  00000-0 -10246+1 0  9990","l2":"2 69854  89.0056  60.2189 0032227 198.4099 161.5925 14.15124718  2290"},{"id":"69855","name":"QIANFAN-226","type":"PAYLOAD","l1":"1 69855U 26155H   26202.55578357  .00000057  00000-0  20060-4 0  9993","l2":"2 69855  89.0062  60.2265 0030281 201.4287 158.5638 14.19636425  2288"},{"id":"69856","name":"QIANFAN-227","type":"PAYLOAD","l1":"1 69856U 26155J   26202.54998865  .00000057  00000-0  20056-4 0  9998","l2":"2 69856  89.0061  60.2257 0030216 201.0007 158.9945 14.19928340  2288"},{"id":"69857","name":"QIANFAN-228","type":"PAYLOAD","l1":"1 69857U 26155K   26202.54813075  .00000057  00000-0  19747-4 0  9993","l2":"2 69857  89.0063  60.2254 0030048 201.4368 158.5566 14.20222287  2289"},{"id":"69858","name":"QIANFAN-229","type":"PAYLOAD","l1":"1 69858U 26155L   26202.53995806 -.01981049  00000-0 -10294+1 0  9992","l2":"2 69858  89.0051  60.2244 0035367 202.9223 157.0390 14.18445562  2280"},{"id":"69859","name":"QIANFAN-230","type":"PAYLOAD","l1":"1 69859U 26155M   26202.57256463 -.01867621  00000-0 -10526+1 0  9993","l2":"2 69859  89.0051  60.2285 0029190 199.3591 160.6490 14.13947798  2284"},{"id":"69860","name":"QIANFAN-231","type":"PAYLOAD","l1":"1 69860U 26155N   26202.61145937 -.02008566  00000-0 -10077+1 0  9990","l2":"2 69860  89.0054  60.2165 0032361 200.9278 159.0590 14.20426512  2299"},{"id":"69861","name":"QIANFAN-232","type":"PAYLOAD","l1":"1 69861U 26155P   26202.60803743 -.01748511  00000-0 -89879+0 0  9991","l2":"2 69861  89.0056  60.2158 0031106 210.3930 149.5457 14.19253134  2292"},{"id":"69862","name":"QIANFAN-233","type":"PAYLOAD","l1":"1 69862U 26155Q   26202.60683605 -.01999761  00000-0 -10029+1 0  9992","l2":"2 69862  89.0056  60.2157 0031335 201.3009 158.6879 14.20442805  2299"},{"id":"69863","name":"QIANFAN-234","type":"PAYLOAD","l1":"1 69863U 26155R   26202.60516029 -.02016912  00000-0 -99493+0 0  9998","l2":"2 69863  89.0061  60.2164 0029029 199.4482 160.5604 14.21394420  2291"},{"id":"69864","name":"QIANFAN-235","type":"PAYLOAD","l1":"1 69864U 26155S   26202.60381158 -.01446639  00000-0 -67845+0 0  9990","l2":"2 69864  89.0063  60.2195 0013997 213.9042 146.1255 14.21061628  2292"},{"id":"69865","name":"QIANFAN-236","type":"PAYLOAD","l1":"1 69865U 26155T   26202.60789606 -.02033838  00000-0 -10512+1 0  9995","l2":"2 69865  89.0056  60.2168 0033260 195.4662 164.5515 14.18876915  2294"},{"id":"69866","name":"QIANFAN-237","type":"PAYLOAD","l1":"1 69866U 26155U   26202.46534477 -.02105487  00000-0 -10331+1 0  9993","l2":"2 69866  89.0062  60.2323 0025773 203.8288 156.1712 14.21906668  2269"},{"id":"69867","name":"QIANFAN-238","type":"PAYLOAD","l1":"1 69867U 26155V   26202.60334437 -.01899863  00000-0 -90877+0 0  9993","l2":"2 69867  89.0057  60.2155 0028255 196.9477 163.0774 14.22795108  2291"}]}